{
  "type": "FeatureCollection",
  "features": [
    {
      "type": "Feature",
      "properties": {
        "norad_id": 40730,
        "name": "GPS BIIF-10 (PRN 08)",
        "group": "gps-ops",
        "lat": -52.710509358330334,
        "lon": 166.47248354737675,
        "alt_km": 20365.488908948868,
        "timestamp": "2025-12-09T14:52:26.420820+00:00",
        "meta_object_name": "GPS BIIF-10 (PRN 08)",
        "meta_object_id": "2015-033A",
        "meta_epoch": "2025-12-09T06:15:09.886176",
        "meta_mean_motion": 2.00565711,
        "meta_eccentricity": 0.0110737,
        "meta_inclination": 54.1337,
        "meta_ra_of_asc_node": 274.916,
        "meta_arg_of_pericenter": 26.7244,
        "meta_mean_anomaly": 333.8599,
        "meta_ephemeris_type": 0,
        "meta_classification_type": "U",
        "meta_norad_cat_id": 40730,
        "meta_element_set_no": 999,
        "meta_rev_at_epoch": 7618,
        "meta_bstar": 0,
        "meta_mean_motion_dot": -4.9e-07,
        "meta_mean_motion_ddot": 0,
        "tle_line1": "1 40730U 15033A   25343.26053109 -.00000049  00000+0  00000+0 0  9991",
        "tle_line2": "2 40730  54.1337 274.9160 0110737  26.7244 333.8599  2.00565711 76181"
      },
      "geometry": {
        "type": "Point",
        "coordinates": [
          166.47248354737675,
          -52.710509358330334
        ]
      }
    },
    {
      "type": "Feature",
      "properties": {
        "norad_id": 41019,
        "name": "GPS BIIF-11 (PRN 10)",
        "group": "gps-ops",
        "lat": -28.900071666364408,
        "lon": -120.71316850815718,
        "alt_km": 19900.431135919687,
        "timestamp": "2025-12-09T14:52:26.420831+00:00",
        "meta_object_name": "GPS BIIF-11 (PRN 10)",
        "meta_object_id": "2015-062A",
        "meta_epoch": "2025-12-08T07:44:45.982752",
        "meta_mean_motion": 2.00566979,
        "meta_eccentricity": 0.01106922,
        "meta_inclination": 56.829,
        "meta_ra_of_asc_node": 38.1732,
        "meta_arg_of_pericenter": 229.8078,
        "meta_mean_anomaly": 129.2726,
        "meta_ephemeris_type": 0,
        "meta_classification_type": "U",
        "meta_norad_cat_id": 41019,
        "meta_element_set_no": 999,
        "meta_rev_at_epoch": 7400,
        "meta_bstar": 0,
        "meta_mean_motion_dot": -7.7e-07,
        "meta_mean_motion_ddot": 0,
        "tle_line1": "1 41019U 15062A   25342.32275443 -.00000077  00000+0  00000+0 0  9998",
        "tle_line2": "2 41019  56.8290  38.1732 0110692 229.8078 129.2726  2.00566979 74000"
      },
      "geometry": {
        "type": "Point",
        "coordinates": [
          -120.71316850815718,
          -28.900071666364408
        ]
      }
    },
    {
      "type": "Feature",
      "properties": {
        "norad_id": 41328,
        "name": "GPS BIIF-12 (PRN 32)",
        "group": "gps-ops",
        "lat": 20.333000139314386,
        "lon": -97.82558049200591,
        "alt_km": 20171.047089144777,
        "timestamp": "2025-12-09T14:52:26.420843+00:00",
        "meta_object_name": "GPS BIIF-12 (PRN 32)",
        "meta_object_id": "2016-007A",
        "meta_epoch": "2025-12-08T09:43:25.720320",
        "meta_mean_motion": 2.0056088,
        "meta_eccentricity": 0.0091947,
        "meta_inclination": 55.4038,
        "meta_ra_of_asc_node": 97.0291,
        "meta_arg_of_pericenter": 243.4665,
        "meta_mean_anomaly": 115.5721,
        "meta_ephemeris_type": 0,
        "meta_classification_type": "U",
        "meta_norad_cat_id": 41328,
        "meta_element_set_no": 999,
        "meta_rev_at_epoch": 7201,
        "meta_bstar": 0,
        "meta_mean_motion_dot": 1e-08,
        "meta_mean_motion_ddot": 0,
        "tle_line1": "1 41328U 16007A   25342.40515880  .00000001  00000+0  00000+0 0  9998",
        "tle_line2": "2 41328  55.4038  97.0291 0091947 243.4665 115.5721  2.00560880 72014"
      },
      "geometry": {
        "type": "Point",
        "coordinates": [
          -97.82558049200591,
          20.333000139314386
        ]
      }
    },
    {
      "type": "Feature",
      "properties": {
        "norad_id": 43873,
        "name": "GPS BIII-1  (PRN 04)",
        "group": "gps-ops",
        "lat": 39.54150390336783,
        "lon": 134.11757445961837,
        "alt_km": 20258.446521199487,
        "timestamp": "2025-12-09T14:52:26.420854+00:00",
        "meta_object_name": "GPS BIII-1  (PRN 04)",
        "meta_object_id": "2018-109A",
        "meta_epoch": "2025-12-08T13:41:32.071776",
        "meta_mean_motion": 2.00553358,
        "meta_eccentricity": 0.003721,
        "meta_inclination": 55.5654,
        "meta_ra_of_asc_node": 99.7112,
        "meta_arg_of_pericenter": 194.8122,
        "meta_mean_anomaly": 178.3596,
        "meta_ephemeris_type": 0,
        "meta_classification_type": "U",
        "meta_norad_cat_id": 43873,
        "meta_element_set_no": 999,
        "meta_rev_at_epoch": 5125,
        "meta_bstar": 0,
        "meta_mean_motion_dot": 6e-08,
        "meta_mean_motion_ddot": 0,
        "tle_line1": "1 43873U 18109A   25342.57051009  .00000006  00000+0  00000+0 0  9991",
        "tle_line2": "2 43873  55.5654  99.7112 0037210 194.8122 178.3596  2.00553358 51259"
      },
      "geometry": {
        "type": "Point",
        "coordinates": [
          134.11757445961837,
          39.54150390336783
        ]
      }
    },
    {
      "type": "Feature",
      "properties": {
        "norad_id": 44506,
        "name": "GPS BIII-2  (PRN 18)",
        "group": "gps-ops",
        "lat": -40.48653286833828,
        "lon": -56.93335326312,
        "alt_km": 20237.615799344414,
        "timestamp": "2025-12-09T14:52:26.420866+00:00",
        "meta_object_name": "GPS BIII-2  (PRN 18)",
        "meta_object_id": "2019-056A",
        "meta_epoch": "2025-12-09T05:56:40.359840",
        "meta_mean_motion": 2.00566026,
        "meta_eccentricity": 0.00577742,
        "meta_inclination": 55.7225,
        "meta_ra_of_asc_node": 338.6907,
        "meta_arg_of_pericenter": 198.489,
        "meta_mean_anomaly": 200.4387,
        "meta_ephemeris_type": 0,
        "meta_classification_type": "U",
        "meta_norad_cat_id": 44506,
        "meta_element_set_no": 999,
        "meta_rev_at_epoch": 4626,
        "meta_bstar": 0,
        "meta_mean_motion_dot": -8.6e-07,
        "meta_mean_motion_ddot": 0,
        "tle_line1": "1 44506U 19056A   25343.24768935 -.00000086  00000+0  00000+0 0  9994",
        "tle_line2": "2 44506  55.7225 338.6907 0057774 198.4890 200.4387  2.00566026 46261"
      },
      "geometry": {
        "type": "Point",
        "coordinates": [
          -56.93335326312,
          -40.48653286833828
        ]
      }
    },
    {
      "type": "Feature",
      "properties": {
        "norad_id": 45854,
        "name": "GPS BIII-3  (PRN 23)",
        "group": "gps-ops",
        "lat": -52.601868711718204,
        "lon": -83.88742876900359,
        "alt_km": 20081.758206873972,
        "timestamp": "2025-12-09T14:52:26.420878+00:00",
        "meta_object_name": "GPS BIII-3  (PRN 23)",
        "meta_object_id": "2020-041A",
        "meta_epoch": "2025-12-09T06:59:18.995712",
        "meta_mean_motion": 2.0056182,
        "meta_eccentricity": 0.00604075,
        "meta_inclination": 56.5448,
        "meta_ra_of_asc_node": 36.3195,
        "meta_arg_of_pericenter": 203.3087,
        "meta_mean_anomaly": 171.1638,
        "meta_ephemeris_type": 0,
        "meta_classification_type": "U",
        "meta_norad_cat_id": 45854,
        "meta_element_set_no": 999,
        "meta_rev_at_epoch": 4023,
        "meta_bstar": 0,
        "meta_mean_motion_dot": -8.4e-07,
        "meta_mean_motion_ddot": 0,
        "tle_line1": "1 45854U 20041A   25343.29119208 -.00000084  00000+0  00000+0 0  9993",
        "tle_line2": "2 45854  56.5448  36.3195 0060407 203.3087 171.1638  2.00561820 40237"
      },
      "geometry": {
        "type": "Point",
        "coordinates": [
          -83.88742876900359,
          -52.601868711718204
        ]
      }
    },
    {
      "type": "Feature",
      "properties": {
        "norad_id": 46826,
        "name": "GPS BIII-4  (PRN 14)",
        "group": "gps-ops",
        "lat": -33.35650019355632,
        "lon": 67.03439540758713,
        "alt_km": 20023.904221455752,
        "timestamp": "2025-12-09T14:52:26.420890+00:00",
        "meta_object_name": "GPS BIII-4  (PRN 14)",
        "meta_object_id": "2020-078A",
        "meta_epoch": "2025-12-08T14:24:03.317760",
        "meta_mean_motion": 2.00566768,
        "meta_eccentricity": 0.0064574,
        "meta_inclination": 54.0161,
        "meta_ra_of_asc_node": 218.509,
        "meta_arg_of_pericenter": 203.354,
        "meta_mean_anomaly": 2.942,
        "meta_ephemeris_type": 0,
        "meta_classification_type": "U",
        "meta_norad_cat_id": 46826,
        "meta_element_set_no": 999,
        "meta_rev_at_epoch": 3768,
        "meta_bstar": 0,
        "meta_mean_motion_dot": 1.6e-07,
        "meta_mean_motion_ddot": 0,
        "tle_line1": "1 46826U 20078A   25342.60003840  .00000016  00000+0  00000+0 0  9995",
        "tle_line2": "2 46826  54.0161 218.5090 0064574 203.3540   2.9420  2.00566768 37684"
      },
      "geometry": {
        "type": "Point",
        "coordinates": [
          67.03439540758713,
          -33.35650019355632
        ]
      }
    }
  ]
}